DELTA 2 R/B             
1 25876U 99041E   20099.55599473 -.00000062  00000-0  30980-4 0  9991
2 25876  51.7633 226.2634 0531596 140.2465 223.8705 14.04416378 58830
HELIOS 1B               
1 25977U 99064A   20099.49817963  .00000014  00000-0  88774-5 0  9999
2 25977  98.2707 251.9805 0001388 149.5593 210.5700 14.82469574364751
TERRA                   
1 25994U 99068A   20099.47109731  .00000081  00000-0  28118-4 0  9996
2 25994  98.2170 174.7153 0001115  92.1764 267.9568 14.57123088 80126
SL-16 R/B               
1 26070U 00006B   20099.06297522  .00000031  00000-0  40527-4 0  9990
2 26070  71.0017 321.1717 0018462 235.4989 124.4391 14.15464650 42675
TITAN 4B R/B            
1 26474U 00047B   20099.58262427  .00000014  00000-0  12240-4 0  9998
2 26474  67.9927 268.0146 0060932 273.9915  85.4264 14.95934154 68792
ENVISAT                 
1 27386U 02009A   20099.57215657  .00000003  00000-0  14283-4 0  9990
2 27386  98.1391 110.2883 0001417  90.1998  18.7259 14.37976587948573
IDEFIX & ARIANE 42P R/B 
1 27422U 02021B   20099.52043205 -.00000022  00000-0  75216-5 0  9994
2 27422  98.3439  63.5117 0013456  78.4997 281.7696 14.29284906933280
AQUA                    
1 27424U 02022A   20099.50795206  .00000073  00000-0  26233-4 0  9999
2 27424  98.2039  41.1660 0001347 144.9898 306.3634 14.57112802953685
CZ-4B R/B               
1 27432U 02024C   20099.51149338 -.00000036  00000-0  53504-5 0  9992
2 27432  99.0884 100.5173 0050727  14.8135  93.6644 14.14091190923767
MIDORI II (ADEOS-II)    
1 27597U 02056A   20099.44167547  .00000016  00000-0  23823-4 0  9990
2 27597  98.5133  48.8135 0001202 132.0059 228.1225 14.27440080901827
H-2A R/B                
1 27601U 02056E   20099.43930741  .00000043  00000-0  29985-4 0  9994
2 27601  98.2350 138.7831 0073258 125.7013 285.3183 14.31943590904664
CZ-4B R/B               
1 28059U 03049C   20099.47638034  .00000014  00000-0  15251-4 0  9998
2 28059  98.4875  15.2123 0050055 353.9481   6.1104 14.52594279872679
CZ-2C R/B               
1 28222U 04012C   20099.49893697  .00000206  00000-0  16483-4 0  9992
2 28222  97.6697  61.8879 0045589 269.6481 205.7131 15.10341433875473
SL-16 R/B               
1 28353U 04021B   20099.39561536 -.00000235  00000-0 -98267-4 0  9994
2 28353  71.0000  86.2565 0002550  70.0050 290.1347 14.14232238817245
CZ-4B R/B               
1 28415U 04035C   20099.31159587  .00000091  00000-0  10333-4 0  9995
2 28415  97.6229 141.6250 0050393 230.3353 129.3424 15.06831428853071
CZ-2C R/B               
1 28480U 04046B   20099.36875738 -.00000041  00000-0 -96385-6 0  9997
2 28480  98.0876 139.7152 0143138  72.8055 312.3499 14.25719907800438
ARIANE 5 R/B            
1 28499U 04049H   20099.32789363  .00000050  00000-0  13359-4 0  9990
2 28499  98.0495 200.9025 0093119 139.3452 258.0845 14.80018318825727
CZ-2D R/B               
1 28738U 05024B   20099.49628482  .00000288  00000-0  20382-4 0  9999
2 28738  97.3894 124.3662 0013569  68.9632 291.3048 15.11994872810836
SUZAKU (ASTRO-EII)      
1 28773U 05025A   20099.43143361  .00000694  00000-0  29464-4 0  9992
2 28773  31.3817 111.9482 0004574 223.0607 136.9682 15.17476239813291
ALOS (DAICHI)           
1 28931U 06002A   20099.57166970  .00000155  00000-0  39112-4 0  9993
2 28931  97.8407  88.7434 0001006  36.8105 323.3166 14.62696977757486
H-2A R/B                
1 28932U 06002B   20099.51966409  .00000407  00000-0  43592-4 0  9990
2 28932  98.3186  85.6293 0088493 189.4722 282.6037 14.92181156770717
AKARI (ASTRO-F)         
1 28939U 06005A   20099.46156084  .00001623  00000-0  45936-4 0  9999
2 28939  98.2263  65.5724 0093436 208.3068 151.3079 15.33950242770165
RESURS-DK 1             
1 29228U 06021A   20099.44670925  .00000043  00000-0  10633-4 0  9993
2 29228  69.9376   6.2169 0006802 232.4156 127.6387 15.02525871762238
GENESIS 1               
1 29252U 06029A   20099.58258869  .00000186  00000-0  19172-4 0  9997
2 29252  64.5216 170.1035 0019287 180.3241 179.7874 15.18075927757499
CZ-4B R/B               
1 29507U 06046C   20099.34301504  .00000888  00000-0  73637-4 0  9993
2 29507  97.7516 121.3781 0048755  40.2342 320.2474 15.00551518734903
CZ-2C R/B               
1 31114U 07010B   20099.51350751  .00000047  00000-0  40451-4 0  9994
2 31114  98.2709 317.0533 0060834 110.6047 250.1670 14.19315527673082
COSMO-SKYMED 1          
1 31598U 07023A   20099.46945194  .00000094  00000-0  18328-4 0  9999
2 31598  97.8885 283.6493 0001452  91.9042 268.2380 14.82156411694466
GENESIS 2               
1 31789U 07028A   20099.56266478  .00000209  00000-0  20701-4 0  9994
2 31789  64.5034 211.6114 0048971 253.3646 106.2097 15.17209952704564
COSMOS 2428             
1 31792U 07029A   20099.30795215 -.00000276  00000-0 -12363-3 0  9997
2 31792  70.9207  60.2580 0006937 184.5168 175.5892 14.12367978658967
SL-16 R/B               
1 31793U 07029B   20099.27149425 -.00000272  00000-0 -11719-3 0  9990
2 31793  70.9783  33.7856 0002488 281.5813 190.6628 14.14429534659763
KORONAS-FOTON           
1 33504U 09003A   20099.58475719  .00000033  00000-0  17237-7 0  9996
2 33504  82.4391 292.3411 0019708 156.6648 203.5484 15.15603135616804
H-2A R/B                
1 38341U 12025E   20099.46148054  .00000179  00000-0  28419-4 0  9996
2 38341  98.4895 249.9872 0056798  96.8427 263.9252 14.84008722426980
CUSAT 2 & FALCON 9 R/B  
1 39271U 13055G   20099.38477676  .00005863  00000-0  14057-3 0  9996
2 39271  80.9683 342.3468 0591754  20.9349 341.5002 14.47392077340596
SL-4 R/B                
1 39679U 14021B   20099.32349685  .00000327  00000-0  34188-4 0  9992
2 39679  51.6155  72.8622 0172599  62.8322 299.0128 15.06342491328450
ALOS-2                  
1 39766U 14029A   20099.51114612 -.00000427  00000-0 -50268-4 0  9998
2 39766  97.9189 197.1138 0001454  87.3033 272.8367 14.79467938317356
SL-27 R/B               
1 40354U 14084B   20099.56601516  .00000681  00000-0  17937-4 0  9999
2 40354  74.7384 172.6720 0036990  35.0666 325.2970 15.40120473297372
YAOGAN 29               
1 41038U 15069A   20099.55250734  .00000047  00000-0  13070-4 0  9994
2 41038  98.0064  87.6564 0002203  97.8549 262.2903 14.80442412235936
ASTRO-H (HITOMI)        
1 41337U 16012A   20099.39812907  .00000232  00000-0  11923-4 0  9994
2 41337  31.0055  93.9348 0012338  98.9746 261.2286 14.98667598226987
SHENZHOU-11 MODULE      
1 41868U 16061G   20099.53865028  .00031808  86389-5  97724-4 0  9990
2 41868  42.7888 216.9621 0012258 355.0721  65.4376 15.92266627194904
HXMT (HUIYAN)           
1 42758U 17034A   20099.36339233  .00000227  00000-0  27882-4 0  9995
2 42758  43.0184  60.4912 0012270 304.3139 192.0758 15.08792598155282
CZ-2C R/B               
1 43521U 18054D   20099.57043154  .00000608  00000-0  34900-4 0  9996
2 43521  35.1535 250.6237 0083410 221.7727 137.6597 15.10953173 98570
AEOLUS                  
1 43600U 18066A   20099.54736906  .00032261  00000-0  12501-3 0  9990
2 43600  96.7202 106.9883 0005969  87.9064 272.2893 15.87125121 94288
SAOCOM 1A               
1 43641U 18076A   20099.54514304  .00000030  00000-0  10362-4 0  9995
2 43641  97.8889 286.6567 0001455  81.0772 279.0622 14.82150833 81247
CREW DRAGON DEMO-1 DEB  
1 44064U 19011B   20099.06366757  .00011869  00000-0  13209-3 0  9993
2 44064  51.6402 308.7121 0004465 144.7413 215.3716 15.63332897 61899
